NORAD_CAT_ID,OBJECT_NAME,OBJECT_TYPE,EPOCH,MEAN_MOTION,ECCENTRICITY,INCLINATION,RA_OF_ASC_NODE,ARG_OF_PERICENTER,MEAN_ANOMALY,BSTAR,MEAN_MOTION_DOT,MEAN_MOTION_DDOT,TLE_LINE0,TLE_LINE1,TLE_LINE2,SEMIMAJOR_AXIS,PERIOD,APOGEE,PERIGEE,DECAYED
55277.0,STARLINK-5299,PAYLOAD,2024-03-06 12:31:22,14.98329347,0.0003173,69.9986,93.067,269.8503,90.2292,9.3895e-06,1.9e-07,0.0,0 STARLINK-5299,1 55277U 23010J   24066.52178938  .00000019  00000-0  93895-5 0  9992,2 55277  69.9986  93.0670 0003173 269.8503  90.2292 14.98329347 62964,6950.195,96.107,574.265,569.855,0.0
55277.0,STARLINK-5299,PAYLOAD,2024-03-07 10:57:14,14.98334665,0.0003303,69.9982,90.7096,269.8633,90.2147,0.00019704,2.259e-05,0.0,0 STARLINK-5299,1 55277U 23010J   24067.45642067  .00002259  00000-0  19704-3 0  9997,2 55277  69.9982  90.7096 0003303 269.8633  90.2147 14.98334665 63100,6950.178,96.107,574.339,569.748,0.0
55277.0,STARLINK-5299,PAYLOAD,2024-03-08 02:58:35,14.98336156,0.0003563,69.9994,89.0259,269.1079,90.9672,5.9561e-05,6.18e-06,0.0,0 STARLINK-5299,1 55277U 23010J   24068.12402387  .00000618  00000-0  59561-4 0  9994,2 55277  69.9994  89.0259 0003563 269.1079  90.9672 14.98336156 62892,6950.174,96.107,574.515,569.563,0.0
55277.0,STARLINK-5299,PAYLOAD,2024-03-08 10:59:15,14.98339814,0.0003217,69.9991,88.1856,261.7862,98.2932,7.874e-05,8.47e-06,0.0,0 STARLINK-5299,1 55277U 23010J   24068.45781869  .00000847  00000-0  78740-4 0  9999,2 55277  69.9991  88.1856 0003217 261.7862  98.2932 14.98339814 63251,6950.163,96.106,574.263,569.792,0.0
55277.0,STARLINK-5299,PAYLOAD,2024-03-08 18:59:56,14.98336126,0.0002801,70.0002,87.3429,284.113,75.9717,1.1149e-05,4e-07,0.0,0 STARLINK-5299,1 55277U 23010J   24068.79162228  .00000040  00000-0  11149-4 0  9993,2 55277  70.0002  87.3429 0002801 284.1130  75.9717 14.98336126 63301,6950.174,96.107,573.986,570.092,0.0
55277.0,STARLINK-5299,PAYLOAD,2024-03-09 03:00:36,14.98333372,0.0003402,69.9985,86.5014,268.9351,91.1419,-0.00010086,-1.296e-05,0.0,0 STARLINK-5299,1 55277U 23010J   24069.12542339 -.00001296  00000-0 -10086-3 0  9990,2 55277  69.9985  86.5014 0003402 268.9351  91.1419 14.98333372 63042,6950.182,96.107,574.412,569.683,0.0
55277.0,STARLINK-5299,PAYLOAD,2024-03-09 11:01:16,14.98335747,0.0003397,69.9984,85.6599,270.522,89.555,-9.9046e-05,-1.275e-05,0.0,0 STARLINK-5299,1 55277U 23010J   24069.45922074 -.00001275  00000-0 -99046-4 0  9995,2 55277  69.9984  85.6599 0003397 270.5220  89.5550 14.98335747 63401,6950.175,96.107,574.401,569.679,0.0
55277.0,STARLINK-5299,PAYLOAD,2024-03-10 03:02:36,14.98338138,0.0003405,69.9985,83.9766,267.2483,92.8286,-7.0964e-05,-9.4e-06,0.0,0 STARLINK-5299,1 55277U 23010J   24070.12681575 -.00000940  00000-0 -70964-4 0  9995,2 55277  69.9985  83.9766 0003405 267.2483  92.8286 14.98338138 63199,6950.168,96.106,574.399,569.666,0.0
55277.0,STARLINK-5299,PAYLOAD,2024-03-10 11:03:16,14.98339808,0.0003398,69.9985,83.1349,267.3594,92.7176,-5.0422e-05,-6.95e-06,0.0,0 STARLINK-5299,1 55277U 23010J   24070.46061229 -.00000695  00000-0 -50422-4 0  9994,2 55277  69.9985  83.1349 0003398 267.3594  92.7176 14.98339808 63555,6950.163,96.106,574.389,569.666,0.0
55277.0,STARLINK-5299,PAYLOAD,2024-03-10 17:27:49,14.98336374,0.0003376,69.9986,82.4615,269.1136,90.9637,-5.1301e-05,-7.05e-06,0.0,0 STARLINK-5299,1 55277U 23010J   24070.72765325 -.00000705  00000-0 -51301-4 0  9990,2 55277  69.9986  82.4615 0003376 269.1136  90.9637 14.98336374 63593,6950.173,96.107,574.385,569.692,0.0
55277.0,STARLINK-5299,PAYLOAD,2024-03-11 04:40:45,14.98328811,0.0003315,69.9986,81.2832,270.2575,89.8204,2.3352e-05,1.86e-06,0.0,0 STARLINK-5299,1 55277U 23010J   24071.19497540  .00000186  00000-0  23352-4 0  9999,2 55277  69.9986  81.2832 0003315 270.2575  89.8204 14.98328811 63352,6950.197,96.107,574.366,569.758,0.0
55277.0,STARLINK-5299,PAYLOAD,2024-03-11 09:29:09,14.9833039,0.0003275,69.9988,80.7785,269.6892,90.3892,2.9312e-05,2.57e-06,0.0,0 STARLINK-5299,1 55277U 23010J   24071.39525415  .00000257  00000-0  29312-4 0  9995,2 55277  69.9988  80.7785 0003275 269.6892  90.3892 14.98330390 63696,6950.192,96.107,574.333,569.78,0.0
55277.0,STARLINK-5299,PAYLOAD,2024-03-12 04:42:46,14.98329784,0.0003212,69.9989,78.7587,268.2289,91.8502,-5.2733e-05,-7.22e-06,0.0,0 STARLINK-5299,1 55277U 23010J   24072.19637630 -.00000722  00000-0 -52733-4 0  9999,2 55277  69.9989  78.7587 0003212 268.2289  91.8502 14.98329784 63509,6950.194,96.107,574.291,569.826,0.0
55277.0,STARLINK-5299,PAYLOAD,2024-03-12 11:07:19,14.98330414,0.0003206,69.9989,78.0853,268.1441,91.9351,-4.1383e-05,-5.87e-06,0.0,0 STARLINK-5299,1 55277U 23010J   24072.46341549 -.00000587  00000-0 -41383-4 0  9998,2 55277  69.9989  78.0853 0003206 268.1441  91.9351 14.98330414 63853,6950.192,96.107,574.285,569.828,0.0
55277.0,STARLINK-5299,PAYLOAD,2024-03-13 04:44:47,14.98329143,0.0003164,69.999,76.2336,265.6152,94.4645,-2.7637e-05,-4.23e-06,0.0,0 STARLINK-5299,1 55277U 23010J   24073.19777593 -.00000423  00000-0 -27637-4 0  9996,2 55277  69.9990  76.2336 0003164 265.6152  94.4645 14.98329143 63654,6950.196,96.107,574.26,569.861,0.0
55277.0,STARLINK-5299,PAYLOAD,2024-03-13 09:33:12,14.98328603,0.0003125,69.9991,75.7283,268.1749,91.9052,-3.2465e-06,-1.32e-06,0.0,0 STARLINK-5299,1 55277U 23010J   24073.39805598 -.00000132  00000-0 -32465-5 0  9998,2 55277  69.9991  75.7283 0003125 268.1749  91.9052 14.98328603 63998,6950.197,96.107,574.234,569.89,0.0
55277.0,STARLINK-5299,PAYLOAD,2024-03-13 17:33:52,14.98330099,0.0003219,69.9989,74.8864,269.6503,90.4287,7.8193e-06,0.0,0.0,0 STARLINK-5299,1 55277U 23010J   24073.73185462  .00000000  00000-0  78193-5 0  9997,2 55277  69.9989  74.8864 0003219 269.6503  90.4287 14.98330099 64041,6950.193,96.107,574.295,569.82,0.0
55277.0,STARLINK-5299,PAYLOAD,2024-03-14 04:46:48,14.98330023,0.0003243,69.9988,73.7077,269.1072,90.9716,4.9371e-05,4.96e-06,0.0,0 STARLINK-5299,1 55277U 23010J   24074.19917327  .00000496  00000-0  49371-4 0  9995,2 55277  69.9988  73.7077 0003243 269.1072  90.9716 14.98330023 63809,6950.193,96.107,574.312,569.804,0.0
55277.0,STARLINK-5299,PAYLOAD,2024-03-14 06:22:56,14.98331261,0.0003256,69.9989,73.5396,269.5523,90.5263,4.6486e-05,4.62e-06,0.0,0 STARLINK-5299,1 55277U 23010J   24074.26593259  .00000462  00000-0  46486-4 0  9994,2 55277  69.9989  73.5396 0003256 269.5523  90.5263 14.98331261 64125,6950.189,96.107,574.317,569.791,0.0
55277.0,STARLINK-5299,PAYLOAD,2024-03-14 09:35:12,14.98332583,0.0003232,69.9989,73.203,269.7303,90.3486,6.1199e-05,6.37e-06,0.0,0 STARLINK-5299,1 55277U 23010J   24074.39945119  .00000637  00000-0  61199-4 0  9996,2 55277  69.9989  73.2030 0003232 269.7303  90.3486 14.98332583 64144,6950.185,96.107,574.296,569.804,0.0
55277.0,STARLINK-5299,PAYLOAD,2024-03-15 04:48:49,14.98329886,0.0003224,69.9991,71.1832,269.9292,90.1498,1.8015e-06,-7.2e-07,0.0,0 STARLINK-5299,1 55277U 23010J   24075.20057428 -.00000072  00000-0  18015-5 0  9998,2 55277  69.9991  71.1832 0003224 269.9292  90.1498 14.98329886 63955,6950.193,96.107,574.299,569.818,0.0
55277.0,STARLINK-5299,PAYLOAD,2024-03-15 09:37:13,14.98332732,0.0003205,69.999,70.6781,269.8233,90.2559,3.1769e-05,2.86e-06,0.0,0 STARLINK-5299,1 55277U 23010J   24075.40085133  .00000286  00000-0  31769-4 0  9990,2 55277  69.9990  70.6781 0003205 269.8233  90.2559 14.98332732 64295,6950.184,96.107,574.277,569.822,0.0
55277.0,STARLINK-5299,PAYLOAD,2024-03-16 04:50:50,14.98328744,0.0003096,69.9992,68.6574,269.4329,90.6476,-5.0394e-05,-6.94e-06,0.0,0 STARLINK-5299,1 55277U 23010J   24076.20197592 -.00000694  00000-0 -50394-4 0  9992,2 55277  69.9992  68.6574 0003096 269.4329  90.6476 14.98328744 64104,6950.197,96.107,574.214,569.91,0.0
55277.0,STARLINK-5299,PAYLOAD,2024-03-16 09:39:14,14.98328755,0.0003026,69.9995,68.1533,268.8477,91.2335,-4.2371e-05,-5.99e-06,0.0,0 STARLINK-5299,1 55277U 23010J   24076.40225583 -.00000599  00000-0 -42371-4 0  9996,2 55277  69.9995  68.1533 0003026 268.8477  91.2335 14.98328755 64447,6950.197,96.107,574.165,569.959,0.0
55277.0,STARLINK-5299,PAYLOAD,2024-03-17 04:52:51,14.98331747,0.0003058,69.9994,66.1335,269.3403,90.7405,5.5108e-06,-2.7e-07,0.0,0 STARLINK-5299,1 55277U 23010J   24077.20337231 -.00000027  00000-0  55108-5 0  9997,2 55277  69.9994  66.1335 0003058 269.3403  90.7405 14.98331747 64250,6950.187,96.107,574.178,569.927,0.0
55277.0,STARLINK-5299,PAYLOAD,2024-03-17 09:41:15,14.98333469,0.0003027,69.9994,65.6283,269.2825,90.7988,2.7203e-05,2.32e-06,0.0,0 STARLINK-5299,1 55277U 23010J   24077.40365028  .00000232  00000-0  27203-4 0  9995,2 55277  69.9994  65.6283 0003027 269.2825  90.7988 14.98333469 64595,6950.182,96.107,574.151,569.943,0.0
55277.0,STARLINK-5299,PAYLOAD,2024-03-18 04:54:52,14.98328636,0.000305,69.9994,63.6079,269.4393,90.6417,2.442e-05,1.98e-06,0.0,0 STARLINK-5299,1 55277U 23010J   24078.20477255  .00000198  00000-0  24420-4 0  9999,2 55277  69.9994  63.6079 0003050 269.4393  90.6417 14.98328636 64400,6950.197,96.107,574.182,569.942,0.0
55277.0,STARLINK-5299,PAYLOAD,2024-03-18 08:07:08,14.98330988,0.0002994,69.9995,63.2714,267.8482,92.2334,5.1881e-05,5.26e-06,0.0,0 STARLINK-5299,1 55277U 23010J   24078.33829010  .00000526  00000-0  51881-4 0  9999,2 55277  69.9995  63.2714 0002994 267.8482  92.2334 14.98330988 64735,6950.19,96.107,574.136,569.974,0.0
55277.0,STARLINK-5299,PAYLOAD,2024-03-19 08:09:09,14.98330815,0.0002774,70.0002,60.7478,256.8191,103.2658,-8.964e-06,-2e-06,0.0,0 STARLINK-5299,1 55277U 23010J   24079.33969093 -.00000200  00000-0 -89640-5 0  9992,2 55277  70.0002  60.7478 0002774 256.8191 103.2658 14.98330815 64570,6950.19,96.107,573.983,570.127,0.0
55277.0,STARLINK-5299,PAYLOAD,2024-03-20 08:11:09,14.98337258,0.0002905,69.9999,58.2218,267.9932,92.0894,5.8928e-05,6.1e-06,0.0,0 STARLINK-5299,1 55277U 23010J   24080.34108269  .00000610  00000-0  58928-4 0  9992,2 55277  69.9999  58.2218 0002905 267.9932  92.0894 14.98337258 64720,6950.17,96.107,574.054,570.016,0.0
